[Satellite]
VERSION=1.1
NAME=RS21S (CUBESX-HSE-2)
NICKNAME=RS21S (CUBESX-HSE-2)
TLE1=1 53383U 22096P   22342.48740359  .00011878  00000+0  44247-3 0  9992
TLE2=2 53383  97.4287 243.2792 0006013  37.3316  69.3302 15.27596578 18482
STATUS=0
